O0001
N1 G21
N2 G91 G28 X0 Y0 Z0

N3 ( Contour Mill1 )
N4 (6MM CRB 2FL 19 LOC)
N5 T15 M06
N6 S200 M03
N7 G90 G54 G00 X-35. Y8.85
N8 G43 Z20. H15 M08
N9 G01 Z-1. F2.
N10 G17 X-48.85 F500.
N11 Y-8.85
N12 X-21.15
N13 Y8.85
N14 X-35.
N15 X-48.85 F100.
N16 Y-8.85
N17 X-21.15
N18 Y8.85
N19 X-48.85
N20 Y-8.85
N21 X-21.15
N22 Y8.85
N23 X-35.
N24 G00 Z20.
N25 Z19.
N26 G01 Z-2. F2.
N27 X-48.85 F500.
N28 Y-8.85
N29 X-21.15
N30 Y8.85
N31 X-35.
N32 X-48.85 F100.
N33 Y-8.85
N34 X-21.15
N35 Y8.85
N36 X-48.85
N37 Y-8.85
N38 X-21.15
N39 Y8.85
N40 X-35.
N41 G00 Z20.
N42 Z18.
N43 G01 Z-3. F2.
N44 X-48.85 F500.
N45 Y-8.85
N46 X-21.15
N47 Y8.85
N48 X-35.
N49 X-48.85 F100.
N50 Y-8.85
N51 X-21.15
N52 Y8.85
N53 X-48.85
N54 Y-8.85
N55 X-21.15
N56 Y8.85
N57 X-35.
N58 G00 Z20.
N59 Z17.
N60 G01 Z-4. F2.
N61 X-48.85 F500.
N62 Y-8.85
N63 X-21.15
N64 Y8.85
N65 X-35.
N66 X-48.85 F100.
N67 Y-8.85
N68 X-21.15
N69 Y8.85
N70 X-48.85
N71 Y-8.85
N72 X-21.15
N73 Y8.85
N74 X-35.
N75 G00 Z20.
N76 Z16.
N77 G01 Z-5. F2.
N78 X-48.85 F500.
N79 Y-8.85
N80 X-21.15
N81 Y8.85
N82 X-35.
N83 X-48.85 F100.
N84 Y-8.85
N85 X-21.15
N86 Y8.85
N87 X-48.85
N88 Y-8.85
N89 X-21.15
N90 Y8.85
N91 X-35.
N92 G00 Z20.
N93 Z15.
N94 G01 Z-6. F2.
N95 X-48.85 F500.
N96 Y-8.85
N97 X-21.15
N98 Y8.85
N99 X-35.
N100 X-48.85 F100.
N101 Y-8.85
N102 X-21.15
N103 Y8.85
N104 X-48.85
N105 Y-8.85
N106 X-21.15
N107 Y8.85
N108 X-35.
N109 G00 Z20.
N110 Z50.
N111 X0
N112 Z20.
N113 G01 Z-1. F2.
N114 X-13.85 F500.
N115 Y-8.85
N116 X13.85
N117 Y8.85
N118 X0
N119 X-13.85 F100.
N120 Y-8.85
N121 X13.85
N122 Y8.85
N123 X-13.85
N124 Y-8.85
N125 X13.85
N126 Y8.85
N127 X0
N128 G00 Z20.
N129 Z19.
N130 G01 Z-2. F2.
N131 X-13.85 F500.
N132 Y-8.85
N133 X13.85
N134 Y8.85
N135 X0
N136 X-13.85 F100.
N137 Y-8.85
N138 X13.85
N139 Y8.85
N140 X-13.85
N141 Y-8.85
N142 X13.85
N143 Y8.85
N144 X0
N145 G00 Z20.
N146 Z18.
N147 G01 Z-3. F2.
N148 X-13.85 F500.
N149 Y-8.85
N150 X13.85
N151 Y8.85
N152 X0
N153 X-13.85 F100.
N154 Y-8.85
N155 X13.85
N156 Y8.85
N157 X-13.85
N158 Y-8.85
N159 X13.85
N160 Y8.85
N161 X0
N162 G00 Z20.
N163 Z17.
N164 G01 Z-4. F2.
N165 X-13.85 F500.
N166 Y-8.85
N167 X13.85
N168 Y8.85
N169 X0
N170 X-13.85 F100.
N171 Y-8.85
N172 X13.85
N173 Y8.85
N174 X-13.85
N175 Y-8.85
N176 X13.85
N177 Y8.85
N178 X0
N179 G00 Z20.
N180 Z16.
N181 G01 Z-5. F2.
N182 X-13.85 F500.
N183 Y-8.85
N184 X13.85
N185 Y8.85
N186 X0
N187 X-13.85 F100.
N188 Y-8.85
N189 X13.85
N190 Y8.85
N191 X-13.85
N192 Y-8.85
N193 X13.85
N194 Y8.85
N195 X0
N196 G00 Z20.
N197 Z15.
N198 G01 Z-6. F2.
N199 X-13.85 F500.
N200 Y-8.85
N201 X13.85
N202 Y8.85
N203 X0
N204 X-13.85 F100.
N205 Y-8.85
N206 X13.85
N207 Y8.85
N208 X-13.85
N209 Y-8.85
N210 X13.85
N211 Y8.85
N212 X0
N213 G00 Z20.
N214 Z50. M09
N215 G91 G28 Z0

N216 ( Contour Mill2 )
N217 (6MM CRB 2FL 19 LOC)
N218 T16 M06
N219 S200 M03
N220 G90 G54 G00 X-65.85 Y-35.
N221 G43 Z20. H16 M08
N222 G01 Z-1. F2.
N223 G03 I.85 J0 F500.
N224 I.85 J0 F100.
N225 I.85 J0
N226 G01 X-65.
N227 G00 Z20.
N228 X-65.85
N229 Z19.
N230 G01 Z-2. F2.
N231 G03 I.85 J0 F500.
N232 I.85 J0 F100.
N233 I.85 J0
N234 G01 X-65.
N235 G00 Z20.
N236 X-65.85
N237 Z18.
N238 G01 Z-3. F2.
N239 G03 I.85 J0 F500.
N240 I.85 J0 F100.
N241 I.85 J0
N242 G01 X-65.
N243 G00 Z20.
N244 X-65.85
N245 Z17.
N246 G01 Z-4. F2.
N247 G03 I.85 J0 F500.
N248 I.85 J0 F100.
N249 I.85 J0
N250 G01 X-65.
N251 G00 Z20.
N252 X-65.85
N253 Z16.
N254 G01 Z-5. F2.
N255 G03 I.85 J0 F500.
N256 I.85 J0 F100.
N257 I.85 J0
N258 G01 X-65.
N259 G00 Z20.
N260 X-65.85
N261 Z15.
N262 G01 Z-6. F2.
N263 G03 I.85 J0 F500.
N264 I.85 J0 F100.
N265 I.85 J0
N266 G01 X-65.
N267 G00 Z20.
N268 Z50.
N269 X-65.85 Y35.
N270 Z20.
N271 G01 Z-1. F2.
N272 G03 I.85 J0 F500.
N273 I.85 J0 F100.
N274 I.85 J0
N275 G01 X-65.
N276 G00 Z20.
N277 X-65.85
N278 Z19.
N279 G01 Z-2. F2.
N280 G03 I.85 J0 F500.
N281 I.85 J0 F100.
N282 I.85 J0
N283 G01 X-65.
N284 G00 Z20.
N285 X-65.85
N286 Z18.
N287 G01 Z-3. F2.
N288 G03 I.85 J0 F500.
N289 I.85 J0 F100.
N290 I.85 J0
N291 G01 X-65.
N292 G00 Z20.
N293 X-65.85
N294 Z17.
N295 G01 Z-4. F2.
N296 G03 I.85 J0 F500.
N297 I.85 J0 F100.
N298 I.85 J0
N299 G01 X-65.
N300 G00 Z20.
N301 X-65.85
N302 Z16.
N303 G01 Z-5. F2.
N304 G03 I.85 J0 F500.
N305 I.85 J0 F100.
N306 I.85 J0
N307 G01 X-65.
N308 G00 Z20.
N309 X-65.85
N310 Z15.
N311 G01 Z-6. F2.
N312 G03 I.85 J0 F500.
N313 I.85 J0 F100.
N314 I.85 J0
N315 G01 X-65.
N316 G00 Z20.
N317 Z50.
N318 X64.15 Y-35.
N319 Z20.
N320 G01 Z-1. F2.
N321 G03 I.85 J0 F500.
N322 I.85 J0 F100.
N323 I.85 J0
N324 G01 X65.
N325 G00 Z20.
N326 X64.15
N327 Z19.
N328 G01 Z-2. F2.
N329 G03 I.85 J0 F500.
N330 I.85 J0 F100.
N331 I.85 J0
N332 G01 X65.
N333 G00 Z20.
N334 X64.15
N335 Z18.
N336 G01 Z-3. F2.
N337 G03 I.85 J0 F500.
N338 I.85 J0 F100.
N339 I.85 J0
N340 G01 X65.
N341 G00 Z20.
N342 X64.15
N343 Z17.
N344 G01 Z-4. F2.
N345 G03 I.85 J0 F500.
N346 I.85 J0 F100.
N347 I.85 J0
N348 G01 X65.
N349 G00 Z20.
N350 X64.15
N351 Z16.
N352 G01 Z-5. F2.
N353 G03 I.85 J0 F500.
N354 I.85 J0 F100.
N355 I.85 J0
N356 G01 X65.
N357 G00 Z20.
N358 X64.15
N359 Z15.
N360 G01 Z-6. F2.
N361 G03 I.85 J0 F500.
N362 I.85 J0 F100.
N363 I.85 J0
N364 G01 X65.
N365 G00 Z20.
N366 Z50.
N367 X64.15 Y35.
N368 Z20.
N369 G01 Z-1. F2.
N370 G03 I.85 J0 F500.
N371 I.85 J0 F100.
N372 I.85 J0
N373 G01 X65.
N374 G00 Z20.
N375 X64.15
N376 Z19.
N377 G01 Z-2. F2.
N378 G03 I.85 J0 F500.
N379 I.85 J0 F100.
N380 I.85 J0
N381 G01 X65.
N382 G00 Z20.
N383 X64.15
N384 Z18.
N385 G01 Z-3. F2.
N386 G03 I.85 J0 F500.
N387 I.85 J0 F100.
N388 I.85 J0
N389 G01 X65.
N390 G00 Z20.
N391 X64.15
N392 Z17.
N393 G01 Z-4. F2.
N394 G03 I.85 J0 F500.
N395 I.85 J0 F100.
N396 I.85 J0
N397 G01 X65.
N398 G00 Z20.
N399 X64.15
N400 Z16.
N401 G01 Z-5. F2.
N402 G03 I.85 J0 F500.
N403 I.85 J0 F100.
N404 I.85 J0
N405 G01 X65.
N406 G00 Z20.
N407 X64.15
N408 Z15.
N409 G01 Z-6. F2.
N410 G03 I.85 J0 F500.
N411 I.85 J0 F100.
N412 I.85 J0
N413 G01 X65.
N414 G00 Z20.
N415 Z50. M09
N416 G91 G28 Z0

N417 ( Contour Mill3 )
N418 (6MM CRB 2FL 19 LOC)
N419 T17 M06
N420 S200 M03
N421 G90 G54 G00 X0 Y53.15
N422 G43 Z20. H17 M08
N423 G01 Z-1. F2.
N424 X93.15 F500.
N425 Y-53.15
N426 X-93.15
N427 Y53.15
N428 X0
N429 X93.15 F100.
N430 Y-53.15
N431 X-93.15
N432 Y53.15
N433 X93.15
N434 Y-53.15
N435 X-93.15
N436 Y53.15
N437 X0
N438 G00 Z20.
N439 Z19.
N440 G01 Z-2. F2.
N441 X93.15 F500.
N442 Y-53.15
N443 X-93.15
N444 Y53.15
N445 X0
N446 X93.15 F100.
N447 Y-53.15
N448 X-93.15
N449 Y53.15
N450 X93.15
N451 Y-53.15
N452 X-93.15
N453 Y53.15
N454 X0
N455 G00 Z20.
N456 Z18.
N457 G01 Z-3. F2.
N458 X93.15 F500.
N459 Y-53.15
N460 X-93.15
N461 Y53.15
N462 X0
N463 X93.15 F100.
N464 Y-53.15
N465 X-93.15
N466 Y53.15
N467 X93.15
N468 Y-53.15
N469 X-93.15
N470 Y53.15
N471 X0
N472 G00 Z20.
N473 Z17.
N474 G01 Z-4. F2.
N475 X93.15 F500.
N476 Y-53.15
N477 X-93.15
N478 Y53.15
N479 X0
N480 X93.15 F100.
N481 Y-53.15
N482 X-93.15
N483 Y53.15
N484 X93.15
N485 Y-53.15
N486 X-93.15
N487 Y53.15
N488 X0
N489 G00 Z20.
N490 Z16.
N491 G01 Z-5. F2.
N492 X93.15 F500.
N493 Y-53.15
N494 X-93.15
N495 Y53.15
N496 X0
N497 X93.15 F100.
N498 Y-53.15
N499 X-93.15
N500 Y53.15
N501 X93.15
N502 Y-53.15
N503 X-93.15
N504 Y53.15
N505 X0
N506 G00 Z20.
N507 Z15.
N508 G01 Z-6. F2.
N509 X93.15 F500.
N510 Y-53.15
N511 X-93.15
N512 Y53.15
N513 X0
N514 X93.15 F100.
N515 Y-53.15
N516 X-93.15
N517 Y53.15
N518 X93.15
N519 Y-53.15
N520 X-93.15
N521 Y53.15
N522 X0
N523 G00 Z20.
N524 Z50. M09
N525 G91 G28 Z0
N526 G28 X0 Y0
N527 M30
