%
(FreeCAD Path benchmark task-10 task-10.gcode)
G21
G90
M3
(OPERATION TOOL T1)
T1 M6
S7000 M3
F500
(Job)
(Profile)
(Inside Profile)
(Outside Profile)
G1 X-80.000 Y-45.000 Z0.000 F500
G1 X80.000 Y-45.000 Z0.000 F500
G1 X80.000 Y45.000 Z0.000 F500
G1 X-80.000 Y45.000 Z0.000 F500
G1 X-80.000 Y-45.000 Z0.000 F500
G1 X-40.000 Y-20.000 Z0.000 F500
G1 X-36.000 Y-20.000 Z0.000 F500
G1 X-32.000 Y-20.000 Z0.000 F500
G1 X-28.000 Y-20.000 Z0.000 F500
G1 X-24.000 Y-20.000 Z0.000 F500
G1 X-20.000 Y-20.000 Z0.000 F500
G1 X-16.000 Y-20.000 Z0.000 F500
G1 X-12.000 Y-20.000 Z0.000 F500
G1 X-8.000 Y-20.000 Z0.000 F500
G1 X-4.000 Y-20.000 Z0.000 F500
G1 X0.000 Y-20.000 Z0.000 F500
G1 X4.000 Y-20.000 Z0.000 F500
G1 X8.000 Y-20.000 Z0.000 F500
G1 X12.000 Y-20.000 Z0.000 F500
G1 X16.000 Y-20.000 Z0.000 F500
G1 X20.000 Y-20.000 Z0.000 F500
G1 X24.000 Y-20.000 Z0.000 F500
G1 X28.000 Y-20.000 Z0.000 F500
G1 X32.000 Y-20.000 Z0.000 F500
G1 X36.000 Y-20.000 Z0.000 F500
G1 X-40.000 Y-17.000 Z0.000 F500
G1 X-36.000 Y-17.000 Z0.000 F500
G1 X-32.000 Y-17.000 Z0.000 F500
G1 X-28.000 Y-17.000 Z0.000 F500
G1 X-24.000 Y-17.000 Z0.000 F500
G1 X-20.000 Y-17.000 Z0.000 F500
G1 X-16.000 Y-17.000 Z0.000 F500
G1 X-12.000 Y-17.000 Z0.000 F500
G1 X-8.000 Y-17.000 Z0.000 F500
G1 X-4.000 Y-17.000 Z0.000 F500
G1 X0.000 Y-17.000 Z0.000 F500
G1 X4.000 Y-17.000 Z0.000 F500
G1 X8.000 Y-17.000 Z0.000 F500
G1 X12.000 Y-17.000 Z0.000 F500
G1 X16.000 Y-17.000 Z0.000 F500
G1 X20.000 Y-17.000 Z0.000 F500
G1 X24.000 Y-17.000 Z0.000 F500
G1 X28.000 Y-17.000 Z0.000 F500
G1 X32.000 Y-17.000 Z0.000 F500
G1 X36.000 Y-17.000 Z0.000 F500
G1 X-40.000 Y-14.000 Z0.000 F500
G1 X-36.000 Y-14.000 Z0.000 F500
G1 X-32.000 Y-14.000 Z0.000 F500
G1 X-28.000 Y-14.000 Z0.000 F500
G1 X-24.000 Y-14.000 Z0.000 F500
G1 X-20.000 Y-14.000 Z0.000 F500
G1 X-16.000 Y-14.000 Z0.000 F500
G1 X-12.000 Y-14.000 Z0.000 F500
G1 X-8.000 Y-14.000 Z0.000 F500
G1 X-4.000 Y-14.000 Z0.000 F500
G1 X0.000 Y-14.000 Z0.000 F500
G1 X4.000 Y-14.000 Z0.000 F500
G1 X8.000 Y-14.000 Z0.000 F500
G1 X12.000 Y-14.000 Z0.000 F500
G1 X16.000 Y-14.000 Z0.000 F500
G1 X20.000 Y-14.000 Z0.000 F500
G1 X24.000 Y-14.000 Z0.000 F500
G1 X28.000 Y-14.000 Z0.000 F500
G1 X32.000 Y-14.000 Z0.000 F500
G1 X36.000 Y-14.000 Z0.000 F500
G1 X-40.000 Y-11.000 Z0.000 F500
G1 X-36.000 Y-11.000 Z0.000 F500
G1 X-32.000 Y-11.000 Z0.000 F500
G1 X-28.000 Y-11.000 Z0.000 F500
G1 X-24.000 Y-11.000 Z0.000 F500
G1 X-20.000 Y-11.000 Z0.000 F500
G1 X-16.000 Y-11.000 Z0.000 F500
G1 X-12.000 Y-11.000 Z0.000 F500
G1 X-8.000 Y-11.000 Z0.000 F500
G1 X-4.000 Y-11.000 Z0.000 F500
G1 X0.000 Y-11.000 Z0.000 F500
G1 X4.000 Y-11.000 Z0.000 F500
G1 X8.000 Y-11.000 Z0.000 F500
G1 X12.000 Y-11.000 Z0.000 F500
G1 X16.000 Y-11.000 Z0.000 F500
G1 X20.000 Y-11.000 Z0.000 F500
G1 X24.000 Y-11.000 Z0.000 F500
G1 X28.000 Y-11.000 Z0.000 F500
G1 X32.000 Y-11.000 Z0.000 F500
G1 X36.000 Y-11.000 Z0.000 F500
G1 X-40.000 Y-8.000 Z0.000 F500
G1 X-36.000 Y-8.000 Z0.000 F500
G1 X-32.000 Y-8.000 Z0.000 F500
G1 X-28.000 Y-8.000 Z0.000 F500
G1 X-24.000 Y-8.000 Z0.000 F500
G1 X-20.000 Y-8.000 Z0.000 F500
G1 X-16.000 Y-8.000 Z0.000 F500
G1 X-12.000 Y-8.000 Z0.000 F500
G1 X-8.000 Y-8.000 Z0.000 F500
G1 X-4.000 Y-8.000 Z0.000 F500
G1 X0.000 Y-8.000 Z0.000 F500
G1 X4.000 Y-8.000 Z0.000 F500
G1 X8.000 Y-8.000 Z0.000 F500
G1 X12.000 Y-8.000 Z0.000 F500
G1 X16.000 Y-8.000 Z0.000 F500
G1 X20.000 Y-8.000 Z0.000 F500
G1 X24.000 Y-8.000 Z0.000 F500
G1 X28.000 Y-8.000 Z0.000 F500
G1 X32.000 Y-8.000 Z0.000 F500
G1 X36.000 Y-8.000 Z0.000 F500
G1 X-40.000 Y-5.000 Z0.000 F500
G1 X-36.000 Y-5.000 Z0.000 F500
G1 X-32.000 Y-5.000 Z0.000 F500
G1 X-28.000 Y-5.000 Z0.000 F500
G1 X-24.000 Y-5.000 Z0.000 F500
G1 X-20.000 Y-5.000 Z0.000 F500
G1 X-16.000 Y-5.000 Z0.000 F500
G1 X-12.000 Y-5.000 Z0.000 F500
G1 X-8.000 Y-5.000 Z0.000 F500
G1 X-4.000 Y-5.000 Z0.000 F500
G1 X0.000 Y-5.000 Z0.000 F500
G1 X4.000 Y-5.000 Z0.000 F500
G1 X8.000 Y-5.000 Z0.000 F500
G1 X12.000 Y-5.000 Z0.000 F500
G1 X16.000 Y-5.000 Z0.000 F500
G1 X20.000 Y-5.000 Z0.000 F500
G1 X24.000 Y-5.000 Z0.000 F500
G1 X28.000 Y-5.000 Z0.000 F500
G1 X32.000 Y-5.000 Z0.000 F500
G1 X36.000 Y-5.000 Z0.000 F500
G1 X-40.000 Y-2.000 Z0.000 F500
G1 X-36.000 Y-2.000 Z0.000 F500
G1 X-32.000 Y-2.000 Z0.000 F500
G1 X-28.000 Y-2.000 Z0.000 F500
G1 X-24.000 Y-2.000 Z0.000 F500
G1 X-20.000 Y-2.000 Z0.000 F500
G1 X-16.000 Y-2.000 Z0.000 F500
G1 X-12.000 Y-2.000 Z0.000 F500
G1 X-8.000 Y-2.000 Z0.000 F500
G1 X-4.000 Y-2.000 Z0.000 F500
G1 X0.000 Y-2.000 Z0.000 F500
G1 X4.000 Y-2.000 Z0.000 F500
G1 X8.000 Y-2.000 Z0.000 F500
G1 X12.000 Y-2.000 Z0.000 F500
G1 X16.000 Y-2.000 Z0.000 F500
G1 X20.000 Y-2.000 Z0.000 F500
G1 X24.000 Y-2.000 Z0.000 F500
G1 X28.000 Y-2.000 Z0.000 F500
G1 X32.000 Y-2.000 Z0.000 F500
G1 X36.000 Y-2.000 Z0.000 F500
G1 X-40.000 Y1.000 Z0.000 F500
G1 X-36.000 Y1.000 Z0.000 F500
G1 X-32.000 Y1.000 Z0.000 F500
G1 X-28.000 Y1.000 Z0.000 F500
G1 X-24.000 Y1.000 Z0.000 F500
G1 X-20.000 Y1.000 Z0.000 F500
G1 X-16.000 Y1.000 Z0.000 F500
G1 X-12.000 Y1.000 Z0.000 F500
G1 X-8.000 Y1.000 Z0.000 F500
G1 X-4.000 Y1.000 Z0.000 F500
G1 X0.000 Y1.000 Z0.000 F500
G1 X4.000 Y1.000 Z0.000 F500
G1 X8.000 Y1.000 Z0.000 F500
G1 X12.000 Y1.000 Z0.000 F500
G1 X16.000 Y1.000 Z0.000 F500
G1 X20.000 Y1.000 Z0.000 F500
G1 X24.000 Y1.000 Z0.000 F500
G1 X28.000 Y1.000 Z0.000 F500
G1 X32.000 Y1.000 Z0.000 F500
G1 X36.000 Y1.000 Z0.000 F500
G1 X-40.000 Y4.000 Z0.000 F500
G1 X-36.000 Y4.000 Z0.000 F500
G1 X-32.000 Y4.000 Z0.000 F500
G1 X-28.000 Y4.000 Z0.000 F500
G1 X-24.000 Y4.000 Z0.000 F500
G1 X-20.000 Y4.000 Z0.000 F500
G1 X-16.000 Y4.000 Z0.000 F500
G1 X-12.000 Y4.000 Z0.000 F500
G1 X-8.000 Y4.000 Z0.000 F500
G1 X-4.000 Y4.000 Z0.000 F500
G1 X0.000 Y4.000 Z0.000 F500
G1 X4.000 Y4.000 Z0.000 F500
G1 X8.000 Y4.000 Z0.000 F500
G1 X12.000 Y4.000 Z0.000 F500
G1 X16.000 Y4.000 Z0.000 F500
G1 X20.000 Y4.000 Z0.000 F500
G1 X24.000 Y4.000 Z0.000 F500
G1 X28.000 Y4.000 Z0.000 F500
G1 X32.000 Y4.000 Z0.000 F500
G1 X36.000 Y4.000 Z0.000 F500
M30
%
