HIERARCHY
ROOT Hips
{
	OFFSET 0.00 0.00 0.00
	CHANNELS 6 Xposition Yposition Zposition Zrotation Xrotation Yrotation
	JOINT Spine
	{
		OFFSET 0.00 1.00 0.00
		CHANNELS 3 Zrotation Xrotation Yrotation
		JOINT Head
		{
			OFFSET 0.00 1.00 0.00
			CHANNELS 3 Zrotation Xrotation Yrotation
			End Site
			{
				OFFSET 0.00 0.50 0.00
			}
		}
	}
}
MOTION
Frames: 60
Frame Time: 0.033333
0.000000 0.000000 0.000000 0.000000 0.000000 0.000000 0.000000 0.000000 0.000000 0.000000 0.000000 0.000000
0.000000 0.050000 0.000000 0.000000 0.000000 0.000000 0.000000 0.927051 0.000000 0.000000 0.415823 0.000000
0.000000 0.100000 0.000000 0.000000 0.000000 0.000000 0.000000 1.763356 0.000000 0.000000 0.813473 0.000000
0.000000 0.150000 0.000000 0.000000 0.000000 0.000000 0.000000 2.427051 0.000000 0.000000 1.175571 0.000000
0.000000 0.200000 0.000000 0.000000 0.000000 0.000000 0.000000 2.853170 0.000000 0.000000 1.486290 0.000000
0.000000 0.250000 0.000000 0.000000 0.000000 0.000000 0.000000 3.000000 0.000000 0.000000 1.732051 0.000000
0.000000 0.300000 0.000000 0.000000 0.000000 0.000000 0.000000 2.853170 0.000000 0.000000 1.902113 0.000000
0.000000 0.350000 0.000000 0.000000 0.000000 0.000000 0.000000 2.427051 0.000000 0.000000 1.989044 0.000000
0.000000 0.400000 0.000000 0.000000 0.000000 0.000000 0.000000 1.763356 0.000000 0.000000 1.989044 0.000000
0.000000 0.450000 0.000000 0.000000 0.000000 0.000000 0.000000 0.927051 0.000000 0.000000 1.902113 0.000000
0.000000 0.500000 0.000000 0.000000 0.000000 0.000000 0.000000 0.000000 0.000000 0.000000 1.732051 0.000000
0.000000 0.550000 0.000000 0.000000 0.000000 0.000000 0.000000 -0.927051 0.000000 0.000000 1.486290 0.000000
0.000000 0.600000 0.000000 0.000000 0.000000 0.000000 0.000000 -1.763356 0.000000 0.000000 1.175571 0.000000
0.000000 0.650000 0.000000 0.000000 0.000000 0.000000 0.000000 -2.427051 0.000000 0.000000 0.813473 0.000000
0.000000 0.700000 0.000000 0.000000 0.000000 0.000000 0.000000 -2.853170 0.000000 0.000000 0.415823 0.000000
0.000000 0.750000 0.000000 0.000000 0.000000 0.000000 0.000000 -3.000000 0.000000 0.000000 0.000000 0.000000
0.000000 0.800000 0.000000 0.000000 0.000000 0.000000 0.000000 -2.853170 0.000000 0.000000 -0.415823 0.000000
0.000000 0.850000 0.000000 0.000000 0.000000 0.000000 0.000000 -2.427051 0.000000 0.000000 -0.813473 0.000000
0.000000 0.900000 0.000000 0.000000 0.000000 0.000000 0.000000 -1.763356 0.000000 0.000000 -1.175571 0.000000
0.000000 0.950000 0.000000 0.000000 0.000000 0.000000 0.000000 -0.927051 0.000000 0.000000 -1.486290 0.000000
0.000000 1.000000 0.000000 0.000000 0.000000 0.000000 0.000000 -0.000000 0.000000 0.000000 -1.732051 0.000000
0.000000 1.050000 0.000000 0.000000 0.000000 0.000000 0.000000 0.927051 0.000000 0.000000 -1.902113 0.000000
0.000000 1.100000 0.000000 0.000000 0.000000 0.000000 0.000000 1.763356 0.000000 0.000000 -1.989044 0.000000
0.000000 1.150000 0.000000 0.000000 0.000000 0.000000 0.000000 2.427051 0.000000 0.000000 -1.989044 0.000000
0.000000 1.200000 0.000000 0.000000 0.000000 0.000000 0.000000 2.853170 0.000000 0.000000 -1.902113 0.000000
0.000000 1.250000 0.000000 0.000000 0.000000 0.000000 0.000000 3.000000 0.000000 0.000000 -1.732051 0.000000
0.000000 1.300000 0.000000 0.000000 0.000000 0.000000 0.000000 2.853170 0.000000 0.000000 -1.486290 0.000000
0.000000 1.350000 0.000000 0.000000 0.000000 0.000000 0.000000 2.427051 0.000000 0.000000 -1.175571 0.000000
0.000000 1.400000 0.000000 0.000000 0.000000 0.000000 0.000000 1.763356 0.000000 0.000000 -0.813473 0.000000
0.000000 1.450000 0.000000 0.000000 0.000000 0.000000 0.000000 0.927051 0.000000 0.000000 -0.415823 0.000000
0.000000 1.500000 0.000000 0.000000 0.000000 0.000000 0.000000 0.000000 0.000000 0.000000 -0.000000 0.000000
0.000000 1.550000 0.000000 0.000000 0.000000 0.000000 0.000000 -0.927051 0.000000 0.000000 0.415823 0.000000
0.000000 1.600000 0.000000 0.000000 0.000000 0.000000 0.000000 -1.763356 0.000000 0.000000 0.813473 0.000000
0.000000 1.650000 0.000000 0.000000 0.000000 0.000000 0.000000 -2.427051 0.000000 0.000000 1.175571 0.000000
0.000000 1.700000 0.000000 0.000000 0.000000 0.000000 0.000000 -2.853170 0.000000 0.000000 1.486290 0.000000
0.000000 1.750000 0.000000 0.000000 0.000000 0.000000 0.000000 -3.000000 0.000000 0.000000 1.732051 0.000000
0.000000 1.800000 0.000000 0.000000 0.000000 0.000000 0.000000 -2.853170 0.000000 0.000000 1.902113 0.000000
0.000000 1.850000 0.000000 0.000000 0.000000 0.000000 0.000000 -2.427051 0.000000 0.000000 1.989044 0.000000
0.000000 1.900000 0.000000 0.000000 0.000000 0.000000 0.000000 -1.763356 0.000000 0.000000 1.989044 0.000000
0.000000 1.950000 0.000000 0.000000 0.000000 0.000000 0.000000 -0.927051 0.000000 0.000000 1.902113 0.000000
0.000000 2.000000 0.000000 0.000000 0.000000 0.000000 0.000000 -0.000000 0.000000 0.000000 1.732051 0.000000
0.000000 2.050000 0.000000 0.000000 0.000000 0.000000 0.000000 0.927051 0.000000 0.000000 1.486290 0.000000
0.000000 2.100000 0.000000 0.000000 0.000000 0.000000 0.000000 1.763356 0.000000 0.000000 1.175571 0.000000
0.000000 2.150000 0.000000 0.000000 0.000000 0.000000 0.000000 2.427051 0.000000 0.000000 0.813473 0.000000
0.000000 2.200000 0.000000 0.000000 0.000000 0.000000 0.000000 2.853170 0.000000 0.000000 0.415823 0.000000
0.000000 2.250000 0.000000 0.000000 0.000000 0.000000 0.000000 3.000000 0.000000 0.000000 0.000000 0.000000
0.000000 2.300000 0.000000 0.000000 0.000000 0.000000 0.000000 2.853170 0.000000 0.000000 -0.415823 0.000000
0.000000 2.350000 0.000000 0.000000 0.000000 0.000000 0.000000 2.427051 0.000000 0.000000 -0.813473 0.000000
0.000000 2.400000 0.000000 0.000000 0.000000 0.000000 0.000000 1.763356 0.000000 0.000000 -1.175571 0.000000
0.000000 2.450000 0.000000 0.000000 0.000000 0.000000 0.000000 0.927051 0.000000 0.000000 -1.486290 0.000000
0.000000 2.500000 0.000000 0.000000 0.000000 0.000000 0.000000 0.000000 0.000000 0.000000 -1.732051 0.000000
0.000000 2.550000 0.000000 0.000000 0.000000 0.000000 0.000000 -0.927051 0.000000 0.000000 -1.902113 0.000000
0.000000 2.600000 0.000000 0.000000 0.000000 0.000000 0.000000 -1.763356 0.000000 0.000000 -1.989044 0.000000
0.000000 2.650000 0.000000 0.000000 0.000000 0.000000 0.000000 -2.427051 0.000000 0.000000 -1.989044 0.000000
0.000000 2.700000 0.000000 0.000000 0.000000 0.000000 0.000000 -2.853170 0.000000 0.000000 -1.902113 0.000000
0.000000 2.750000 0.000000 0.000000 0.000000 0.000000 0.000000 -3.000000 0.000000 0.000000 -1.732051 0.000000
0.000000 2.800000 0.000000 0.000000 0.000000 0.000000 0.000000 -2.853170 0.000000 0.000000 -1.486290 0.000000
0.000000 2.850000 0.000000 0.000000 0.000000 0.000000 0.000000 -2.427051 0.000000 0.000000 -1.175571 0.000000
0.000000 2.900000 0.000000 0.000000 0.000000 0.000000 0.000000 -1.763356 0.000000 0.000000 -0.813473 0.000000
0.000000 2.950000 0.000000 0.000000 0.000000 0.000000 0.000000 -0.927051 0.000000 0.000000 -0.415823 0.000000
