(begin preamble)
G17 G54 G40 G49 G80 G90
G21
(begin operation: Inside Profile cuts T1 KERF=0.15MM)
(machine units: mm/min)
M5
M6 T1
G43 H1
M3 S9000
G0 Z8.000
G0 Z8.000
G0 X-71.925 Y-11.925
G1 Z-0.500 F7200.000
G1 X-48.075 Y-11.925 F18000.000
G1 X-48.075 Y11.925
G1 X-71.925 Y11.925
G1 X-71.925 Y-11.925
G0 Z8.000
G0 X-37.925 Y-11.925
G1 Z-0.500 F7200.000
G1 X-14.075 Y-11.925 F18000.000
G1 X-14.075 Y11.925
G1 X-37.925 Y11.925
G1 X-37.925 Y-11.925
G0 Z8.000
G0 X14.075 Y-11.925
G1 Z-0.500 F7200.000
G1 X37.925 Y-11.925 F18000.000
G1 X37.925 Y11.925
G1 X14.075 Y11.925
G1 X14.075 Y-11.925
G0 Z8.000
G0 X48.075 Y-11.925
G1 Z-0.500 F7200.000
G1 X71.925 Y-11.925 F18000.000
G1 X71.925 Y11.925
G1 X48.075 Y11.925
G1 X48.075 Y-11.925
G0 Z8.000
G0 X-49.075 Y30.000
G1 Z-0.500 F7200.000
G3 X-55.000 Y35.925 I-5.925 J0.000 F18000.000
G3 X-60.925 Y30.000 I0.000 J-5.925
G3 X-55.000 Y24.075 I5.925 J0.000
G3 X-49.075 Y30.000 I0.000 J5.925
G0 Z8.000
G0 X-14.075 Y30.000
G1 Z-0.500 F7200.000
G3 X-20.000 Y35.925 I-5.925 J0.000 F18000.000
G3 X-25.925 Y30.000 I0.000 J-5.925
G3 X-20.000 Y24.075 I5.925 J0.000
G3 X-14.075 Y30.000 I0.000 J5.925
G0 Z8.000
G0 X25.925 Y30.000
G1 Z-0.500 F7200.000
G3 X20.000 Y35.925 I-5.925 J0.000 F18000.000
G3 X14.075 Y30.000 I0.000 J-5.925
G3 X20.000 Y24.075 I5.925 J0.000
G3 X25.925 Y30.000 I0.000 J5.925
G0 Z8.000
G0 X60.925 Y30.000
G1 Z-0.500 F7200.000
G3 X55.000 Y35.925 I-5.925 J0.000 F18000.000
G3 X49.075 Y30.000 I0.000 J-5.925
G3 X55.000 Y24.075 I5.925 J0.000
G3 X60.925 Y30.000 I0.000 J5.925
(finish operation: Inside Profile cuts T1 KERF=0.15MM)
(begin operation: Outside Profile cut last T1 KERF=0.15MM)
(machine units: mm/min)
G0 Z8.000
G0 Z8.000
G0 X-90.075 Y-50.075
G1 Z-0.500 F7200.000
G1 X90.075 Y-50.075 F18000.000
G1 X90.075 Y50.075
G1 X-90.075 Y50.075
G1 X-90.075 Y-50.075
G0 Z8.000
(finish operation: Outside Profile cut last T1 KERF=0.15MM)
(begin postamble)
M05
G17 G54 G90 G80 G40
M2
