HIERARCHY
ROOT mixamorig_Hips
{
	OFFSET 0.00 0.00 0.00
	CHANNELS 6 Xposition Yposition Zposition Zrotation Xrotation Yrotation
	JOINT mixamorig_LeftUpLeg
	{
		OFFSET 0.00 -1.00 0.00
		CHANNELS 3 Zrotation Xrotation Yrotation
		JOINT mixamorig_LeftLeg
		{
			OFFSET 0.00 -1.00 0.00
			CHANNELS 3 Zrotation Xrotation Yrotation
			End Site
			{
				OFFSET 0.00 -0.50 0.00
			}
		}
	}
}
MOTION
Frames: 30
Frame Time: 0.033333
0.000000 0.000000 0.000000 0.000000 0.000000 0.000000 0.000000 0.000000 0.000000 0.000000 0.000000 0.000000
0.010749 0.018966 0.000000 0.000000 0.000000 0.644911 0.000000 2.149704 0.000000 0.000000 0.350692 0.000000
0.020994 0.037931 0.000000 0.000000 0.000000 1.259667 0.000000 4.198891 0.000000 0.000000 1.386369 0.000000
0.030259 0.056897 0.000000 0.000000 0.000000 1.815523 0.000000 6.051742 0.000000 0.000000 3.058604 0.000000
0.038108 0.075862 0.000000 0.000000 0.000000 2.286486 0.000000 7.621621 0.000000 0.000000 5.289206 0.000000
0.044176 0.094828 0.000000 0.000000 0.000000 2.650536 0.000000 8.835120 0.000000 0.000000 7.973873 0.000000
0.048177 0.113793 0.000000 0.000000 0.000000 2.890650 0.000000 9.635500 0.000000 0.000000 10.987075 0.000000
0.049927 0.132759 0.000000 0.000000 0.000000 2.995600 0.000000 9.985334 0.000000 0.000000 14.187916 0.000000
0.049341 0.151724 0.000000 0.000000 0.000000 2.960480 0.000000 9.868265 0.000000 0.000000 17.426730 0.000000
0.046449 0.170690 0.000000 0.000000 0.000000 2.786930 0.000000 9.289767 0.000000 0.000000 20.552072 0.000000
0.041384 0.189655 0.000000 0.000000 0.000000 2.483067 0.000000 8.276890 0.000000 0.000000 23.417806 0.000000
0.034385 0.208621 0.000000 0.000000 0.000000 2.063098 0.000000 6.876995 0.000000 0.000000 25.889932 0.000000
0.025778 0.227586 0.000000 0.000000 0.000000 1.546662 0.000000 5.155539 0.000000 0.000000 27.852858 0.000000
0.015965 0.246552 0.000000 0.000000 0.000000 0.957905 0.000000 3.193015 0.000000 0.000000 29.214798 0.000000
0.005406 0.265517 0.000000 0.000000 0.000000 0.324357 0.000000 1.081190 0.000000 0.000000 29.912069 0.000000
-0.005406 0.284483 0.000000 0.000000 0.000000 -0.324357 0.000000 -1.081190 0.000000 0.000000 29.912069 0.000000
-0.015965 0.303448 0.000000 0.000000 0.000000 -0.957905 0.000000 -3.193015 0.000000 0.000000 29.214798 0.000000
-0.025778 0.322414 0.000000 0.000000 0.000000 -1.546662 0.000000 -5.155539 0.000000 0.000000 27.852858 0.000000
-0.034385 0.341379 0.000000 0.000000 0.000000 -2.063098 0.000000 -6.876995 0.000000 0.000000 25.889932 0.000000
-0.041384 0.360345 0.000000 0.000000 0.000000 -2.483067 0.000000 -8.276890 0.000000 0.000000 23.417806 0.000000
-0.046449 0.379310 0.000000 0.000000 0.000000 -2.786930 0.000000 -9.289767 0.000000 0.000000 20.552072 0.000000
-0.049341 0.398276 0.000000 0.000000 0.000000 -2.960480 0.000000 -9.868265 0.000000 0.000000 17.426730 0.000000
-0.049927 0.417241 0.000000 0.000000 0.000000 -2.995600 0.000000 -9.985334 0.000000 0.000000 14.187916 0.000000
-0.048177 0.436207 0.000000 0.000000 0.000000 -2.890650 0.000000 -9.635500 0.000000 0.000000 10.987075 0.000000
-0.044176 0.455172 0.000000 0.000000 0.000000 -2.650536 0.000000 -8.835120 0.000000 0.000000 7.973873 0.000000
-0.038108 0.474138 0.000000 0.000000 0.000000 -2.286486 0.000000 -7.621621 0.000000 0.000000 5.289206 0.000000
-0.030259 0.493103 0.000000 0.000000 0.000000 -1.815523 0.000000 -6.051742 0.000000 0.000000 3.058604 0.000000
-0.020994 0.512069 0.000000 0.000000 0.000000 -1.259667 0.000000 -4.198891 0.000000 0.000000 1.386369 0.000000
-0.010749 0.531034 0.000000 0.000000 0.000000 -0.644911 0.000000 -2.149704 0.000000 0.000000 0.350692 0.000000
-0.000000 0.550000 0.000000 0.000000 0.000000 -0.000000 0.000000 -0.000000 0.000000 0.000000 0.000000 0.000000
